     2.10           N: GPS NAV DATA                         RINEX VERSION / TYPE
CONVBIN 2.4.3                           20180531 144821 UTC PGM / RUN BY / DATE 
log: /var/lib/jenkins/workspace/AutoDataCollect_NVS/nvsData/COMMENT             
format: NVS BINR                                            COMMENT             
                                                            END OF HEADER       
 9 18  5 31 16  0  0.0  .514422535896E-03  .227373675443E-12  .000000000000E+00
     .760000000000E+02 -.178437500000E+02  .482091493462E-08  .114130848929E+01
    -.853091478348E-06  .929712434299E-03  .663474202156E-05  .515360812759E+04
     .403200000000E+06 -.372529029846E-08 -.672873847508E+00 -.558793544769E-08
     .952649545357E+00  .245218750000E+03  .185725307789E+01 -.810248035797E-08
    -.315370279295E-09  .100000000000E+01  .200300000000E+04  .000000000000E+00
     .200000000000E+01  .000000000000E+00  .931322574615E-09  .760000000000E+02
     .398834000000E+06  .000000000000E+00
26 18  5 31 16  0  0.0 -.130958855152E-03  .125055521494E-10  .000000000000E+00
     .590000000000E+02  .899062500000E+02  .487734592297E-08  .279008278382E+01
     .471062958241E-05  .279491685797E-02  .309571623802E-05  .515366607666E+04
     .403200000000E+06 -.931322574615E-07  .141518763396E+01 -.372529029846E-08
     .955539630724E+00  .317593750000E+03  .127871262809E+00 -.829998858498E-08
     .242867259253E-09  .100000000000E+01  .200300000000E+04  .000000000000E+00
     .200000000000E+01  .000000000000E+00  .745058059692E-08  .590000000000E+02
     .398859000000E+06  .000000000000E+00
